IRIDIUM 116             
1 43072U 17083C   23255.43197567  .00000181  00000+0  57630-4 0  9998
2 43072  86.4006  23.5906 0002009  98.8449 261.2974 14.34215700299581
IRIDIUM 130             
1 43073U 17083D   23255.40027181  .00000423  00000+0  14400-3 0  9996
2 43073  86.4012  23.7811 0002190  95.0917 265.0529 14.34216696299523
IRIDIUM 151             
1 43074U 17083E   23255.44466409  .00000377  00000+0  12767-3 0  9993
2 43074  86.4007  23.6202 0002097  99.5497 260.5936 14.34220733299551
IRIDIUM 134             
1 43075U 17083F   23255.41295361  .00000440  00000+0  15004-3 0  9996
2 43075  86.4008  23.6277 0002138  90.7909 269.3532 14.34219836299519
IRIDIUM 137             
1 43076U 17083G   23255.42563964  .00000457  00000+0  15628-3 0  9995
2 43076  86.4010  23.6954 0001906 100.3040 259.8370 14.34217289299582
IRIDIUM 141             
1 43077U 17083H   23255.41929628  .00000418  00000+0  14215-3 0  9996
2 43077  86.4005  23.5854 0002326  96.6963 263.4498 14.34220670299583
IRIDIUM 153             
1 43078U 17083J   23255.37147976  .00000469  00000+0  16035-3 0  9998
2 43078  86.4032 352.0806 0002527  93.8495 266.2989 14.34217650300687
IRIDIUM 131             
1 43079U 17083K   23255.40661529  .00000425  00000+0  14484-3 0  9996
2 43079  86.4011  23.7093 0002220  94.5847 265.5602 14.34216625299518
